$$SOE
2460147.500000000, A.D. 2023-Jul-22 00:00:00.0000, 3.544353161657985E+08, -8.826517647189149E+07, -2.207364755123481E+06,
2460154.500000000, A.D. 2023-Jul-29 00:00:00.0000, 3.565530899997124E+08, -7.620378555250941E+07, 1.086744589816406E+06,
2460161.500000000, A.D. 2023-Aug-05 00:00:00.0000, 3.583138182606394E+08, -6.406599042452195E+07, 4.379759732027691E+06,
2460168.500000000, A.D. 2023-Aug-12 00:00:00.0000, 3.597140065960046E+08, -5.186363307746952E+07, 7.668361126482468E+06,
2460175.500000000, A.D. 2023-Aug-19 00:00:00.0000, 3.607507266251008E+08, -3.960876978747328E+07, 1.094920641340457E+07,
2460182.500000000, A.D. 2023-Aug-26 00:00:00.0000, 3.614216323680371E+08, -2.731363811727781E+07, 1.421894003895960E+07,
2460189.500000000, A.D. 2023-Sep-02 00:00:00.0000, 3.617249739745849E+08, -1.499062249930658E+07, 1.747420310685473E+07,
2460196.500000000, A.D. 2023-Sep-09 00:00:00.0000, 3.616596086253756E+08, -2.652218692756622E+06, 2.071164338043731E+07,
2460203.500000000, A.D. 2023-Sep-16 00:00:00.0000, 3.612250086354681E+08, 9.689002558544286E+06, 2.392792533687387E+07,
2460210.500000000, A.D. 2023-Sep-23 00:00:00.0000, 3.604212670670094E+08, 2.202043267298178E+07, 2.711974017668184E+07,
2460217.500000000, A.D. 2023-Sep-30 00:00:00.0000, 3.592491004380598E+08, 3.432946408699445E+07, 3.028381583405438E+07,
2460224.500000000, A.D. 2023-Oct-07 00:00:00.0000, 3.577098461487638E+08, 4.660352998495696E+07, 3.341692707934950E+07,
2460231.500000000, A.D. 2023-Oct-14 00:00:00.0000, 3.558054556808602E+08, 5.883014128688292E+07, 3.651590526990011E+07,
2460238.500000000, A.D. 2023-Oct-21 00:00:00.0000, 3.535384868428725E+08, 7.099692219356735E+07, 3.957764750762591E+07,
2460245.500000000, A.D. 2023-Oct-28 00:00:00.0000, 3.509120937144222E+08, 8.309164625635758E+07, 4.259912544660845E+07,
2460252.500000000, A.D. 2023-Nov-04 00:00:00.0000, 3.479300131540654E+08, 9.510227191968390E+07, 4.557739373589841E+07,
2460259.500000000, A.D. 2023-Nov-11 00:00:00.0000, 3.445965481945384E+08, 1.070169766696773E+08, 4.850959797193007E+07,
2460266.500000000, A.D. 2023-Nov-18 00:00:00.0000, 3.409165487194093E+08, 1.188241894769318E+08, 5.139298208153345E+07,
2460273.500000000, A.D. 2023-Nov-25 00:00:00.0000, 3.368953896935737E+08, 1.305126213313357E+08, 5.422489508438003E+07,
2460280.500000000, A.D. 2023-Dec-02 00:00:00.0000, 3.325389471972234E+08, 1.420712936593135E+08, 5.700279719286393E+07,
2460287.500000000, A.D. 2023-Dec-09 00:00:00.0000, 3.278535725810493E+08, 1.534895643946672E+08, 5.972426520730025E+07,
2460294.500000000, A.D. 2023-Dec-16 00:00:00.0000, 3.228460652850791E+08, 1.647571515751653E+08, 6.238699715946836E+07,
2460301.500000000, A.D. 2023-Dec-23 00:00:00.0000, 3.175236449332138E+08, 1.758641550404024E+08, 6.498881621465429E+07,
2460308.500000000, A.D. 2023-Dec-30 00:00:00.0000, 3.118939216273931E+08, 1.868010771997475E+08, 6.752767403383213E+07,
2460315.500000000, A.D. 2024-Jan-06 00:00:00.0000, 3.059648629379243E+08, 1.975588404662810E+08, 7.000165356930321E+07,
2460322.500000000, A.D. 2024-Jan-13 00:00:00.0000, 2.997447610367148E+08, 2.081287995332458E+08, 7.240897086767355E+07,
2460329.500000000, A.D. 2024-Jan-20 00:00:00.0000, 2.932422014583074E+08, 2.185027515840397E+08, 7.474797603645207E+07,
2460336.500000000, A.D. 2024-Jan-27 00:00:00.0000, 2.864660317082567E+08, 2.286729451236219E+08, 7.701715363638160E+07,
2460343.500000000, A.D. 2024-Feb-03 00:00:00.0000, 2.794253295283011E+08, 2.386320865443119E+08, 7.921512249070884E+07,
2460350.500000000, A.D. 2024-Feb-10 00:00:00.0000, 2.721293713190951E+08, 2.483733442179475E+08, 8.134063489658964E+07,
2460357.500000000, A.D. 2024-Feb-17 00:00:00.0000, 2.645876010651550E+08, 2.578903502242765E+08, 8.339257526493375E+07,
2460364.500000000, A.D. 2024-Feb-24 00:00:00.0000, 2.568095999848133E+08, 2.671771998486117E+08, 8.536995822815500E+07,
2460371.500000000, A.D. 2024-Mar-02 00:00:00.0000, 2.488050571012740E+08, 2.762284489480587E+08, 8.727192625448741E+07,
2460378.500000000, A.D. 2024-Mar-09 00:00:00.0000, 2.405837410197400E+08, 2.850391092663225E+08, 8.909774679683664E+07,
2460385.500000000, A.D. 2024-Mar-16 00:00:00.0000, 2.321554734320351E+08, 2.936046420455675E+08, 9.084680900316413E+07,
2460392.500000000, A.D. 2024-Mar-23 00:00:00.0000, 2.235301043514771E+08, 3.019209511991612E+08, 9.251862013536149E+07,
2460399.500000000, A.D. 2024-Mar-30 00:00:00.0000, 2.147174869190353E+08, 3.099843761730192E+08, 9.411280194440486E+07,
2460406.500000000, A.D. 2024-Apr-06 00:00:00.0000, 2.057274520973996E+08, 3.177916812885727E+08, 9.562908674871884E+07,
2460413.500000000, A.D. 2024-Apr-13 00:00:00.0000, 1.965697868537383E+08, 3.253400425657220E+08, 9.706731300513363E+07,
2460420.500000000, A.D. 2024-Apr-20 00:00:00.0000, 1.872542149102558E+08, 3.326270348548868E+08, 9.842742072051658E+07,
2460427.500000000, A.D. 2024-Apr-27 00:00:00.0000, 1.777903785570114E+08, 3.396506188644871E+08, 9.970944683672264E+07,
2460434.500000000, A.D. 2024-May-04 00:00:00.0000, 1.681878216126317E+08, 3.464091275240921E+08, 1.009135205613723E+08,
2460441.500000000, A.D. 2024-May-11 00:00:00.0000, 1.584559737569939E+08, 3.529012517182125E+08, 1.020398586500345E+08,
2460448.500000000, A.D. 2024-May-18 00:00:00.0000, 1.486041362926026E+08, 3.591260255407750E+08, 1.030887606669600E+08,
2460455.500000000, A.D. 2024-May-25 00:00:00.0000, 1.386414693243835E+08, 3.650828111822199E+08, 1.040606042511560E+08,
2460462.500000000, A.D. 2024-Jun-01 00:00:00.0000, 1.285769803739574E+08, 3.707712835008106E+08, 1.049558404036816E+08,
2460469.500000000, A.D. 2024-Jun-08 00:00:00.0000, 1.184195146227663E+08, 3.761914143543811E+08, 1.057749887942953E+08,
2460476.500000000, A.D. 2024-Jun-15 00:00:00.0000, 1.081777471246845E+08, 3.813434573284727E+08, 1.065186331154826E+08,
2460483.500000000, A.D. 2024-Jun-22 00:00:00.0000, 9.786017592010029E+07, 3.862279341186513E+08, 1.071874166902533E+08,
2460490.500000000, A.D. 2024-Jun-29 00:00:00.0000, 8.747511386287071E+07, 3.908456208177177E+08, 1.077820383946293E+08,
2460497.500000000, A.D. 2024-Jul-06 00:00:00.0000, 7.703068173373237E+07, 3.951975317030749E+08, 1.083032484651210E+08,
2460504.500000000, A.D. 2024-Jul-13 00:00:00.0000, 6.653480452252340E+07, 3.992849034109964E+08, 1.087518442579439E+08,
2460511.500000000, A.D. 2024-Jul-20 00:00:00.0000, 5.599520882861990E+07, 4.031091806956844E+08, 1.091286662455987E+08,
2460518.500000000, A.D. 2024-Jul-27 00:00:00.0000, 4.541942065602122E+07, 4.066720028525876E+08, 1.094345942385583E+08,
2460525.500000000, A.D. 2024-Aug-03 00:00:00.0000, 3.481476380824599E+07, 4.099751904636978E+08, 1.096705437806449E+08,
2460532.500000000, A.D. 2024-Aug-10 00:00:00.0000, 2.418835898232457E+07, 4.130207324870650E+08, 1.098374627052178E+08,
2460539.500000000, A.D. 2024-Aug-17 00:00:00.0000, 1.354712354453936E+07, 4.158107737332500E+08, 1.099363278508651E+08,
2460546.500000000, A.D. 2024-Aug-24 00:00:00.0000, 2.897771953307074E+06, 4.183476027221935E+08, 1.099681419322346E+08,
2460553.500000000, A.D. 2024-Aug-31 00:00:00.0000, -7.753183115097024E+06, 4.206336398699472E+08, 1.099339305492920E+08,
2460560.500000000, A.D. 2024-Sep-07 00:00:00.0000, -1.839942862977900E+07, 4.226714261383994E+08, 1.098347393098788E+08,
2460567.500000000, A.D. 2024-Sep-14 00:00:00.0000, -2.903484802651066E+07, 4.244636131476197E+08, 1.096716311367428E+08,
2460574.500000000, A.D. 2024-Sep-21 00:00:00.0000, -3.965351906568529E+07, 4.260129551638731E+08, 1.094456839756539E+08,
2460581.500000000, A.D. 2024-Sep-28 00:00:00.0000, -5.024971326092502E+07, 4.273222997293206E+08, 1.091579886802751E+08,
2460588.500000000, A.D. 2024-Oct-05 00:00:00.0000, -6.081789325572158E+07, 4.283945769268662E+08, 1.088096467323927E+08,
2460595.500000000, A.D. 2024-Oct-12 00:00:00.0000, -7.135270855132811E+07, 4.292327902546352E+08, 1.084017680705229E+08,
2460602.500000000, A.D. 2024-Oct-19 00:00:00.0000, -8.184899137402050E+07, 4.298400088296562E+08, 1.079354691603030E+08,
2460609.500000000, A.D. 2024-Oct-26 00:00:00.0000, -9.230175274937376E+07, 4.302193601064233E+08, 1.074118712383335E+08,
2460616.500000000, A.D. 2024-Nov-02 00:00:00.0000, -1.027061785592098E+08, 4.303740229483210E+08, 1.068320986880964E+08,
2460623.500000000, A.D. 2024-Nov-09 00:00:00.0000, -1.130576255147916E+08, 4.303072210584292E+08, 1.061972775352125E+08,
2460630.500000000, A.D. 2024-Nov-16 00:00:00.0000, -1.233516170478111E+08, 4.300222167551086E+08, 1.055085340541029E+08,
2460637.500000000, A.D. 2024-Nov-23 00:00:00.0000, -1.335838390971700E+08, 4.295223050270105E+08, 1.047669934721015E+08,
2460644.500000000, A.D. 2024-Nov-30 00:00:00.0000, -1.437501356058992E+08, 4.288108078089340E+08, 1.039737787429037E+08,
2460651.500000000, A.D. 2024-Dec-07 00:00:00.0000, -1.538465033294643E+08, 4.278910688830759E+08, 1.031300093798999E+08,
2460658.500000000, A.D. 2024-Dec-14 00:00:00.0000, -1.638690866629466E+08, 4.267664506143516E+08, 1.022368005076329E+08,
2460665.500000000, A.D. 2024-Dec-21 00:00:00.0000, -1.738141748212651E+08, 4.254403312641348E+08, 1.012952622377001E+08,
2460672.500000000, A.D. 2024-Dec-28 00:00:00.0000, -1.836781994127867E+08, 4.239160998971652E+08, 1.003064989398510E+08,
2460679.500000000, A.D. 2025-Jan-04 00:00:00.0000, -1.934577298231866E+08, 4.221971512401314E+08, 9.927160835912454E+07,
2460686.500000000, A.D. 2025-Jan-11 00:00:00.0000, -2.031494682432615E+08, 4.202868821379133E+08, 9.819168087771931E+07,
2460693.500000000, A.D. 2025-Jan-18 00:00:00.0000, -2.127502452666745E+08, 4.181886886741533E+08, 9.706779892613724E+07,
2460700.500000000, A.D. 2025-Jan-25 00:00:00.0000, -2.222570158221344E+08, 4.159059634660828E+08, 9.590103647789863E+07,
2460707.500000000, A.D. 2025-Feb-01 00:00:00.0000, -2.316668552577501E+08, 4.134420930885262E+08, 9.469245860374591E+07,
2460714.500000000, A.D. 2025-Feb-08 00:00:00.0000, -2.409769555252162E+08, 4.108004556324599E+08, 9.344312107758674E+07,
$$EOE